{
  "type": "FeatureCollection",
  "features": [
    {
      "type": "Feature",
      "properties": {
        "norad_id": 37562,
        "name": "IRIDIUM 33 DEB",
        "group": "iridium-33-debris",
        "lat": -69.51089558305455,
        "lon": -122.23878880759762,
        "alt_km": 718.9331107633889,
        "timestamp": "2025-12-02T15:49:07.579209+00:00",
        "meta_object_name": "IRIDIUM 33 DEB",
        "meta_object_id": "1997-051XX",
        "meta_epoch": "2025-12-01T22:58:57.051264",
        "meta_mean_motion": 14.56303474,
        "meta_eccentricity": 0.00264306,
        "meta_inclination": 86.3757,
        "meta_ra_of_asc_node": 48.301,
        "meta_arg_of_pericenter": 141.8338,
        "meta_mean_anomaly": 32.2129,
        "meta_ephemeris_type": 0,
        "meta_classification_type": "U",
        "meta_norad_cat_id": 37562,
        "meta_element_set_no": 999,
        "meta_rev_at_epoch": 86171,
        "meta_bstar": 0.001368886,
        "meta_mean_motion_dot": 6.111e-05,
        "meta_mean_motion_ddot": 0,
        "tle_line1": "1 37562U 97051XX  25335.95760476  .00006111  00000+0  13689-2 0  9994",
        "tle_line2": "2 37562  86.3757  48.3010 0026430 141.8338  32.2129 14.56303474861719"
      },
      "geometry": {
        "type": "Point",
        "coordinates": [
          -122.23878880759762,
          -69.51089558305455
        ]
      }
    },
    {
      "type": "Feature",
      "properties": {
        "norad_id": 37565,
        "name": "IRIDIUM 33 DEB",
        "group": "iridium-33-debris",
        "lat": -28.533672502046418,
        "lon": -164.04187576817344,
        "alt_km": 727.9070214022204,
        "timestamp": "2025-12-02T15:49:07.579236+00:00",
        "meta_object_name": "IRIDIUM 33 DEB",
        "meta_object_id": "1997-051YA",
        "meta_epoch": "2025-12-01T09:04:48.126720",
        "meta_mean_motion": 14.51440972,
        "meta_eccentricity": 0.00151047,
        "meta_inclination": 86.3507,
        "meta_ra_of_asc_node": 14.527,
        "meta_arg_of_pericenter": 117.1302,
        "meta_mean_anomaly": 243.1446,
        "meta_ephemeris_type": 0,
        "meta_classification_type": "U",
        "meta_norad_cat_id": 37565,
        "meta_element_set_no": 999,
        "meta_rev_at_epoch": 65672,
        "meta_bstar": 0.00062987128,
        "meta_mean_motion_dot": 2.537e-05,
        "meta_mean_motion_ddot": 0,
        "tle_line1": "1 37565U 97051YA  25335.37833480  .00002537  00000+0  62987-3 0  9993",
        "tle_line2": "2 37565  86.3507  14.5270 0015104 117.1302 243.1446 14.51440972656729"
      },
      "geometry": {
        "type": "Point",
        "coordinates": [
          -164.04187576817344,
          -28.533672502046418
        ]
      }
    },
    {
      "type": "Feature",
      "properties": {
        "norad_id": 38017,
        "name": "IRIDIUM 33 DEB",
        "group": "iridium-33-debris",
        "lat": 36.41822864674188,
        "lon": 173.3057451296429,
        "alt_km": 739.9943971214589,
        "timestamp": "2025-12-02T15:49:07.579258+00:00",
        "meta_object_name": "IRIDIUM 33 DEB",
        "meta_object_id": "1997-051YD",
        "meta_epoch": "2025-12-01T06:29:11.103360",
        "meta_mean_motion": 14.48304289,
        "meta_eccentricity": 0.009214,
        "meta_inclination": 86.3439,
        "meta_ra_of_asc_node": 171.2047,
        "meta_arg_of_pericenter": 141.8586,
        "meta_mean_anomaly": 218.9187,
        "meta_ephemeris_type": 0,
        "meta_classification_type": "U",
        "meta_norad_cat_id": 38017,
        "meta_element_set_no": 999,
        "meta_rev_at_epoch": 61236,
        "meta_bstar": 0.0066574,
        "meta_mean_motion_dot": 0.00026341,
        "meta_mean_motion_ddot": 0,
        "tle_line1": "1 38017U 97051YD  25335.27026740  .00026341  00000+0  66574-2 0  9992",
        "tle_line2": "2 38017  86.3439 171.2047 0092140 141.8586 218.9187 14.48304289612362"
      },
      "geometry": {
        "type": "Point",
        "coordinates": [
          173.3057451296429,
          36.41822864674188
        ]
      }
    },
    {
      "type": "Feature",
      "properties": {
        "norad_id": 38022,
        "name": "IRIDIUM 33 DEB",
        "group": "iridium-33-debris",
        "lat": 86.1059064455958,
        "lon": 127.48092591536242,
        "alt_km": 713.9715243244573,
        "timestamp": "2025-12-02T15:49:07.579270+00:00",
        "meta_object_name": "IRIDIUM 33 DEB",
        "meta_object_id": "1997-051YJ",
        "meta_epoch": "2025-12-01T09:24:18.819072",
        "meta_mean_motion": 14.41139287,
        "meta_eccentricity": 0.00471789,
        "meta_inclination": 86.2706,
        "meta_ra_of_asc_node": 21.4121,
        "meta_arg_of_pericenter": 86.4447,
        "meta_mean_anomaly": 274.2147,
        "meta_ephemeris_type": 0,
        "meta_classification_type": "U",
        "meta_norad_cat_id": 38022,
        "meta_element_set_no": 999,
        "meta_rev_at_epoch": 69030,
        "meta_bstar": 0.0011656877,
        "meta_mean_motion_dot": 3.826e-05,
        "meta_mean_motion_ddot": 0,
        "tle_line1": "1 38022U 97051YJ  25335.39188448  .00003826  00000+0  11657-2 0  9990",
        "tle_line2": "2 38022  86.2706  21.4121 0047178  86.4447 274.2147 14.41139287690302"
      },
      "geometry": {
        "type": "Point",
        "coordinates": [
          127.48092591536242,
          86.1059064455958
        ]
      }
    },
    {
      "type": "Feature",
      "properties": {
        "norad_id": 38028,
        "name": "IRIDIUM 33 DEB",
        "group": "iridium-33-debris",
        "lat": 54.22153769683532,
        "lon": 9.767363929601506,
        "alt_km": 736.2141266627896,
        "timestamp": "2025-12-02T15:49:07.579281+00:00",
        "meta_object_name": "IRIDIUM 33 DEB",
        "meta_object_id": "1997-051YQ",
        "meta_epoch": "2025-12-01T19:38:22.494624",
        "meta_mean_motion": 14.46148175,
        "meta_eccentricity": 0.00293312,
        "meta_inclination": 86.3254,
        "meta_ra_of_asc_node": 5.0166,
        "meta_arg_of_pericenter": 155.6716,
        "meta_mean_anomaly": 204.5878,
        "meta_ephemeris_type": 0,
        "meta_classification_type": "U",
        "meta_norad_cat_id": 38028,
        "meta_element_set_no": 999,
        "meta_rev_at_epoch": 65337,
        "meta_bstar": 0.00036227719,
        "meta_mean_motion_dot": 1.321e-05,
        "meta_mean_motion_ddot": 0,
        "tle_line1": "1 38028U 97051YQ  25335.81831591  .00001321  00000+0  36228-3 0  9997",
        "tle_line2": "2 38028  86.3254   5.0166 0029331 155.6716 204.5878 14.46148175653377"
      },
      "geometry": {
        "type": "Point",
        "coordinates": [
          9.767363929601506,
          54.22153769683532
        ]
      }
    },
    {
      "type": "Feature",
      "properties": {
        "norad_id": 38228,
        "name": "IRIDIUM 33 DEB",
        "group": "iridium-33-debris",
        "lat": -45.16123473739364,
        "lon": 49.027932652401496,
        "alt_km": 809.6813248825756,
        "timestamp": "2025-12-02T15:49:07.579291+00:00",
        "meta_object_name": "IRIDIUM 33 DEB",
        "meta_object_id": "1997-051ZC",
        "meta_epoch": "2025-11-29T12:36:14.255136",
        "meta_mean_motion": 14.27233107,
        "meta_eccentricity": 0.00630868,
        "meta_inclination": 86.2984,
        "meta_ra_of_asc_node": 54.0911,
        "meta_arg_of_pericenter": 232.1345,
        "meta_mean_anomaly": 189.6543,
        "meta_ephemeris_type": 0,
        "meta_classification_type": "U",
        "meta_norad_cat_id": 38228,
        "meta_element_set_no": 999,
        "meta_rev_at_epoch": 84593,
        "meta_bstar": 0.00041927733,
        "meta_mean_motion_dot": 1.064e-05,
        "meta_mean_motion_ddot": 0,
        "tle_line1": "1 38228U 97051ZC  25333.52516499  .00001064  00000+0  41928-3 0  9999",
        "tle_line2": "2 38228  86.2984  54.0911 0063086 232.1345 189.6543 14.27233107845930"
      },
      "geometry": {
        "type": "Point",
        "coordinates": [
          49.027932652401496,
          -45.16123473739364
        ]
      }
    },
    {
      "type": "Feature",
      "properties": {
        "norad_id": 38241,
        "name": "IRIDIUM 33 DEB",
        "group": "iridium-33-debris",
        "lat": -43.077437442223726,
        "lon": -8.399926699068667,
        "alt_km": 719.7640269200365,
        "timestamp": "2025-12-02T15:49:07.579301+00:00",
        "meta_object_name": "IRIDIUM 33 DEB",
        "meta_object_id": "1997-051ZR",
        "meta_epoch": "2025-12-01T08:39:05.059872",
        "meta_mean_motion": 14.54752437,
        "meta_eccentricity": 0.00056988,
        "meta_inclination": 86.3235,
        "meta_ra_of_asc_node": 355.6193,
        "meta_arg_of_pericenter": 96.8352,
        "meta_mean_anomaly": 263.3504,
        "meta_ephemeris_type": 0,
        "meta_classification_type": "U",
        "meta_norad_cat_id": 38241,
        "meta_element_set_no": 999,
        "meta_rev_at_epoch": 60035,
        "meta_bstar": 0.00088099609,
        "meta_mean_motion_dot": 3.793e-05,
        "meta_mean_motion_ddot": 0,
        "tle_line1": "1 38241U 97051ZR  25335.36047523  .00003793  00000+0  88100-3 0  9999",
        "tle_line2": "2 38241  86.3235 355.6193 0005698  96.8352 263.3504 14.54752437600359"
      },
      "geometry": {
        "type": "Point",
        "coordinates": [
          -8.399926699068667,
          -43.077437442223726
        ]
      }
    }
  ]
}